NORAD_CAT_ID,OBJECT_NAME,OBJECT_TYPE,EPOCH,MEAN_MOTION,ECCENTRICITY,INCLINATION,RA_OF_ASC_NODE,ARG_OF_PERICENTER,MEAN_ANOMALY,BSTAR,MEAN_MOTION_DOT,MEAN_MOTION_DDOT,TLE_LINE0,TLE_LINE1,TLE_LINE2,SEMIMAJOR_AXIS,PERIOD,APOGEE,PERIGEE,DECAYED
51754.0,STARLINK-3457,PAYLOAD,2022-04-05 16:00:00,15.73232817,0.000106,53.2153,286.4031,77.804,66.6963,0.0007354,0.00104021,0.0,0 STARLINK-3457,1 51754U 22016AS  22095.66667824  .00104021  00000-0  73540-3 0  9996,2 51754  53.2153 286.4031 0001060  77.8040  66.6963 15.73232817  8058,6727.802,91.531,350.38,348.95300000000015,0.0
51754.0,STARLINK-3457,PAYLOAD,2022-04-05 22:00:00,15.73335479,0.0001104,53.215,285.1673,62.9269,58.3191,-0.0010156,-0.00141594,0.0,0 STARLINK-3457,1 51754U 22016AS  22095.91667824 -.00141594  00000-0 -10156-2 0  9995,2 51754  53.2150 285.1673 0001104  62.9269  58.3191 15.73335479  8082,6727.509,91.525,350.117,348.631,0.0
51754.0,STARLINK-3457,PAYLOAD,2022-04-06 14:00:01,15.73160989,9.51e-05,53.2152,281.8661,73.551,225.607,5.5596e-05,7.177e-05,0.0,0 STARLINK-3457,1 51754U 22016AS  22096.58334491  .00007177  00000-0  55596-4 0  9995,2 51754  53.2152 281.8661 0000951  73.5510 225.6070 15.73160989  3701,6728.005999999999,91.535,350.511,349.232,0.0
51754.0,STARLINK-3457,PAYLOAD,2022-04-06 22:00:00,15.73128878,0.0001171,53.2153,280.2187,60.0491,328.0297,0.00057316,0.00080345,0.0,0 STARLINK-3457,1 51754U 22016AS  22096.91667824  .00080345  00000-0  57316-3 0  9990,2 51754  53.2153 280.2187 0001171  60.0491 328.0297 15.73128878  8246,6728.098000000001,91.537,350.751,349.175,0.0
51754.0,STARLINK-3457,PAYLOAD,2022-04-07 14:00:01,15.732373999999998,0.0001183,53.2151,276.9181,67.8408,138.02200000000002,-0.00081797,-0.00114053,0.0,0 STARLINK-3457,1 51754U 22016AS  22097.58334491 -.00114053  00000-0 -81797-3 0  9991,2 51754  53.2151 276.9181 0001183  67.8408 138.0220 15.73237400  3710,6727.7890000000025,91.531,350.449,348.858,0.0
51754.0,STARLINK-3457,PAYLOAD,2022-04-07 20:00:01,15.73152824,0.0001254,53.2148,275.6825,53.5243,129.0673,0.00027702,0.00038357,0.0,0 STARLINK-3457,1 51754U 22016AS  22097.83334491  .00038357  00000-0  27702-3 0  9995,2 51754  53.2148 275.6825 0001254  53.5243 129.0673 15.73152824  8392,6728.03,91.536,350.73800000000006,349.051,0.0
51754.0,STARLINK-3457,PAYLOAD,2022-04-07 22:00:00,15.73123428,0.0001245,53.2146,275.2705,51.602,243.2206,0.00081996,0.00115672,0.0,0 STARLINK-3457,1 51754U 22016AS  22097.91667824  .00115672  00000-0  81996-3 0  9994,2 51754  53.2146 275.2705 0001245  51.6020 243.2206 15.73123428  3681,6728.113,91.538,350.816,349.141,0.0
51754.0,STARLINK-3457,PAYLOAD,2022-04-08 06:00:00,15.7320596,0.0001039,53.2144,273.619,56.9561,326.7686,0.00051813,0.00072746,0.0,0 STARLINK-3457,1 51754U 22016AS  22098.25001157  .00072746  00000-0  51813-3 0  9992,2 51754  53.2144 273.6190 0001039  56.9561 326.7686 15.73205960  8459,6727.878000000002,91.533,350.44199999999995,349.0440000000001,0.0
51754.0,STARLINK-3457,PAYLOAD,2022-04-08 14:00:03,15.73274051,0.0001158,53.2146,271.9695,59.3247,53.4736,-0.00071384,-0.00099935,0.0,0 STARLINK-3457,1 51754U 22016AS  22098.58336806 -.00099935  00000-0 -71384-3 0  9996,2 51754  53.2146 271.9695 0001158  59.3247  53.4736 15.73274051  8505,6727.684,91.529,350.32800000000015,348.77,0.0
51754.0,STARLINK-3457,PAYLOAD,2022-04-08 22:00:00,15.731787300000002,0.000133,53.2147,270.3218,46.5455,155.1203,9.8849e-05,0.00013262,0.0,0 STARLINK-3457,1 51754U 22016AS  22098.91667824  .00013262  00000-0  98849-4 0  9993,2 51754  53.2147 270.3218 0001330  46.5455 155.1203 15.73178730  3681,6727.956,91.534,350.716,348.926,0.0
51754.0,STARLINK-3457,PAYLOAD,2022-04-09 06:00:00,15.73182504,0.0001288,53.2146,268.6704,54.9282,235.6356,7.0152e-06,3.64e-06,0.0,0 STARLINK-3457,1 51754U 22016AS  22099.25001157  .00000364  00000-0  70152-5 0  9999,2 51754  53.2146 268.6704 0001288  54.9282 235.6356 15.73182504  8618,6727.945,91.534,350.677,348.9430000000001,0.0
51754.0,STARLINK-3457,PAYLOAD,2022-04-09 14:00:01,15.73186544,0.0001367,53.2144,267.0213,55.4021,324.0515,-0.00067383,-0.00094084,0.0,0 STARLINK-3457,1 51754U 22016AS  22099.58334491 -.00094084  00000-0 -67383-3 0  9999,2 51754  53.2144 267.0213 0001367  55.4021 324.0515 15.73186544  3702,6727.934,91.534,350.718,348.879,0.0
51754.0,STARLINK-3457,PAYLOAD,2022-04-09 16:00:00,15.7315304,0.0001428,53.2141,266.6096,51.4014,80.2804,-0.00032328,-0.00045654,0.0,0 STARLINK-3457,1 51754U 22016AS  22099.66667824 -.00045654  00000-0 -32328-3 0  9997,2 51754  53.2141 266.6096 0001428  51.4014  80.2804 15.73153040  8677,6728.029,91.536,350.855,348.93300000000005,0.0
51754.0,STARLINK-3457,PAYLOAD,2022-04-09 22:00:00,15.73116483,0.0001449,53.2137,265.3735,43.639,64.7197,0.00092917,0.0013137,0.0,0 STARLINK-3457,1 51754U 22016AS  22099.91667824  .00131370  00000-0  92917-3 0  9994,2 51754  53.2137 265.3735 0001449  43.6390  64.7197 15.73116483  8718,6728.1330000000025,91.538,350.973,349.023,0.0
51754.0,STARLINK-3457,PAYLOAD,2022-04-10 14:00:01,15.733044,0.0001361,53.2138,262.0729,48.4964,237.6907,-0.00040982,-0.00057998,0.0,0 STARLINK-3457,1 51754U 22016AS  22100.58334491 -.00057998  00000-0 -40982-3 0  9991,2 51754  53.2138 262.0729 0001361  48.4964 237.6907 15.73304400  8829,6727.598000000001,91.527,350.37800000000016,348.547,0.0
51754.0,STARLINK-3457,PAYLOAD,2022-04-10 22:00:00,15.73257161,0.0001587,53.2136,260.4246,38.9605,336.2472,-0.00013199,-0.00019148,0.0,0 STARLINK-3457,1 51754U 22016AS  22100.91667824 -.00019148  00000-0 -13199-3 0  9992,2 51754  53.2136 260.4246 0001587  38.9605 336.2472 15.73257161  3705,6727.732,91.53,350.665,348.53,0.0
51754.0,STARLINK-3457,PAYLOAD,2022-04-11 14:00:01,15.73237587,0.0001509,53.2146,257.1227,43.412,149.6906,-0.00034906,-0.00049401,0.0,0 STARLINK-3457,1 51754U 22016AS  22101.58334491 -.00049401  00000-0 -34906-3 0  9991,2 51754  53.2146 257.1227 0001509  43.4120 149.6906 15.73237587  3714,6727.788000000001,91.531,350.668,348.63800000000015,0.0
51754.0,STARLINK-3457,PAYLOAD,2022-04-11 20:00:01,15.73165399,0.0001649,53.2133,255.8882,35.0764,134.7546,0.00054404,0.00076316,0.0,0 STARLINK-3457,1 51754U 22016AS  22101.83334491  .00076316  00000-0  54404-3 0  9997,2 51754  53.2133 255.8882 0001649  35.0764 134.7546 15.73165399  9024,6727.994000000002,91.535,350.968,348.749,0.0
51754.0,STARLINK-3457,PAYLOAD,2022-04-11 22:00:00,15.73167418,0.000164,53.2129,255.4756,33.2868,248.7729,0.00065719,0.00092505,0.0,0 STARLINK-3457,1 51754U 22016AS  22101.91667824  .00092505  00000-0  65719-3 0  9994,2 51754  53.2129 255.4756 0001640  33.2868 248.7729 15.73167418  3691,6727.988,91.535,350.956,348.75,0.0
51754.0,STARLINK-3457,PAYLOAD,2022-04-12 04:00:00,15.73216704,0.0001548,53.213,254.2368,41.8028,216.9302,-0.00048503,-0.00068192,0.0,0 STARLINK-3457,1 51754U 22016AS  22102.16667824 -.00068192  00000-0 -48503-3 0  9991,2 51754  53.2130 254.2368 0001548  41.8028 216.9302 15.73216704  9074,6727.848000000001,91.532,350.754,348.671,0.0
51754.0,STARLINK-3457,PAYLOAD,2022-04-12 12:00:00,15.73217884,0.0001686,53.2133,252.5871,48.1186,299.5483,-0.00047039,-0.00066173,0.0,0 STARLINK-3457,1 51754U 22016AS  22102.50001157 -.00066173  00000-0 -47039-3 0  9990,2 51754  53.2133 252.5871 0001686  48.1186 299.5483 15.73217884  9128,6727.844,91.532,350.844,348.575,0.0
51754.0,STARLINK-3457,PAYLOAD,2022-04-12 14:00:01,15.73197401,0.0001771999999999,53.2132,252.1753,46.2589,53.6459,-0.00029027,-0.00041157,0.0,0 STARLINK-3457,1 51754U 22016AS  22102.58334491 -.00041157  00000-0 -29027-3 0  9990,2 51754  53.2132 252.1753 0001772  46.2589  53.6459 15.73197401  3717,6727.903,91.533,350.96,348.575,0.0
51754.0,STARLINK-3457,PAYLOAD,2022-04-12 22:00:00,15.731549800000002,0.0001922,53.2131,250.5268,41.7653,147.026,0.00055626,0.00078027,0.0,0 STARLINK-3457,1 51754U 22016AS  22102.91667824  .00078027  00000-0  55626-3 0  9994,2 51754  53.2131 250.5268 0001922  41.7653 147.0260 15.73154980  3698,6728.024,91.536,351.182,348.595,0.0
51754.0,STARLINK-3457,PAYLOAD,2022-04-13 04:00:00,15.73228284,0.0001759,53.2135,249.2878,41.865,123.6155,-0.00021451,-0.00030654,0.0,0 STARLINK-3457,1 51754U 22016AS  22103.16667824 -.00030654  00000-0 -21451-3 0  9997,2 51754  53.2135 249.2878 0001759  41.8650 123.6155 15.73228284  9238,6727.815,91.532,350.86300000000006,348.496,0.0
51754.0,STARLINK-3457,PAYLOAD,2022-04-13 14:00:03,15.73235981,0.0001796,53.2134,247.2264,38.6349,328.1836,-0.0001945,-0.00027871,0.0,0 STARLINK-3457,1 51754U 22016AS  22103.58336806 -.00027871  00000-0 -19450-3 0  9999,2 51754  53.2134 247.2264 0001796  38.6349 328.1836 15.73235981  9290,6727.793000000002,91.531,350.866,348.449,0.0
51754.0,STARLINK-3457,PAYLOAD,2022-04-13 22:00:00,15.73207776,0.000185,53.2127,245.5774,30.05,65.6171,0.00027326,0.00037917,0.0,0 STARLINK-3457,1 51754U 22016AS  22103.91667824  .00037917  00000-0  27326-3 0  9994,2 51754  53.2127 245.5774 0001850  30.0500  65.6171 15.73207776  3701,6727.873000000001,91.533,350.983,348.49300000000005,0.0
51754.0,STARLINK-3457,PAYLOAD,2022-04-14 14:00:01,15.73251978,0.0001819,53.2132,242.2775,34.1322,239.4316,-0.00063108,-0.00088465,0.0,0 STARLINK-3457,1 51754U 22016AS  22104.58334491 -.00088465  00000-0 -63108-3 0  9993,2 51754  53.2132 242.2775 0001819  34.1322 239.4316 15.73251978  9457,6727.746999999999,91.53,350.836,348.38800000000015,0.0
51754.0,STARLINK-3457,PAYLOAD,2022-04-14 22:00:00,15.73173214,0.0001983,53.2133,240.6284,29.3249,333.1682,1.2134e-05,1.0800000000000003e-05,0.0,0 STARLINK-3457,1 51754U 22016AS  22104.91667824  .00001080  00000-0  12134-4 0  9999,2 51754  53.2133 240.6284 0001983  29.3249 333.1682 15.73173214  3707,6727.972,91.535,351.171,348.50199999999984,0.0
51754.0,STARLINK-3457,PAYLOAD,2022-04-15 06:00:00,15.73162952,0.0001879,53.2136,238.9767,35.3051,56.1051,0.00089582,0.00126818,0.0,0 STARLINK-3457,1 51754U 22016AS  22105.25001157  .00126818  00000-0  89582-3 0  9995,2 51754  53.2136 238.9767 0001879  35.3051  56.1051 15.73162952  9556,6728.001,91.535,351.13,348.602,0.0
